OKEAN-3                 
1 21397U 91039A   25307.82603911  .00004205  00000+0  30404-3 0  9995
2 21397  82.5139  98.6994 0015596  42.7190 317.5245 15.03713055846113
COSMOS 2151             
1 21422U 91042A   25307.78814419  .00002386  00000+0  19205-3 0  9994
2 21422  82.4995 205.0273 0013911 119.7480 240.5129 14.99470349844328
SL-14 R/B               
1 21423U 91042B   25307.81653141  .00000471  00000+0  56863-4 0  9997
2 21423  82.4930 338.2278 0015610 297.2624  62.6999 14.81685320834439
ERS-1                   
1 21574U 91050A   25307.73835507  .00000361  00000+0  13044-3 0  9993
2 21574  98.7929 317.8130 0031387 214.3853 145.5303 14.39318169797612
ARIANE 40 R/B           
1 21610U 91050F   25306.42437058  .00000437  00000+0  14371-3 0  9996
2 21610  98.2226 358.2988 0004403  99.0621 261.1068 14.42760275800642
INTERCOSMOS 25          
1 21819U 91086A   25307.66530242  .00001475  00000+0  28510-3 0  9995
2 21819  82.6095  26.1897 1488794  28.6052 338.9056 12.11560356481423
SL-8 R/B                
1 21876U 92008B   25306.45622472  .00000103  00000+0  90236-4 0  9998
2 21876  82.9298   2.4078 0035875 128.8320 242.2907 13.75946797691928
SL-8 R/B                
1 21938U 92020B   25307.58383154  .00000046  00000+0  31844-4 0  9993
2 21938  82.9299 247.3921 0027722 291.3522 242.4645 13.75520033683795
USA 81                  
1 21949U 92023A   25306.23565103  .00000237  00000+0  80436-4 0  9998
2 21949  85.0115 204.9283 0002767  85.5828 274.5681 14.32304313 76542
COSMOS 2219             
1 22219U 92076A   25307.67654844  .00000356  00000+0  21140-3 0  9995
2 22219  71.0597 281.4871 0017086  26.4047 333.7943 14.14060160700566
SL-16 R/B               
1 22220U 92076B   25307.83616942  .00000291  00000+0  16922-3 0  9992
2 22220  70.9983  93.4776 0014991 284.5405 238.7737 14.16831302704001
COSMOS 2221             
1 22236U 92080A   25307.74684594  .00002683  00000+0  23957-3 0  9995
2 22236  82.5069  39.6329 0013226 253.7665 106.2101 14.95524450761966
