CCSDS_OMM_VERS = 2.0
CREATION_DATE  = 
ORIGINATOR     = 

OBJECT_NAME    = OKEAN-3
OBJECT_ID      = 1991-039A
CENTER_NAME    = EARTH
REF_FRAME      = TEME
TIME_SYSTEM    = UTC
MEAN_ELEMENT_THEORY = SGP/SGP4

EPOCH          = 2025-11-03T19:49:29.779104
MEAN_MOTION    = 15.03713055
ECCENTRICITY   = .0015596
INCLINATION    = 82.5139
RA_OF_ASC_NODE = 98.6994
ARG_OF_PERICENTER = 42.7190
MEAN_ANOMALY   = 317.5245

EPHEMERIS_TYPE = 0
CLASSIFICATION_TYPE = U
NORAD_CAT_ID   = 21397
ELEMENT_SET_NO = 999
REV_AT_EPOCH   = 84611
BSTAR          = .30404E-3
MEAN_MOTION_DOT = .4205E-4
MEAN_MOTION_DDOT = 0

CCSDS_OMM_VERS = 2.0
CREATION_DATE  = 
ORIGINATOR     = 

OBJECT_NAME    = COSMOS 2151
OBJECT_ID      = 1991-042A
CENTER_NAME    = EARTH
REF_FRAME      = TEME
TIME_SYSTEM    = UTC
MEAN_ELEMENT_THEORY = SGP/SGP4

EPOCH          = 2025-11-03T18:54:55.658016
MEAN_MOTION    = 14.99470349
ECCENTRICITY   = .0013911
INCLINATION    = 82.4995
RA_OF_ASC_NODE = 205.0273
ARG_OF_PERICENTER = 119.7480
MEAN_ANOMALY   = 240.5129

EPHEMERIS_TYPE = 0
CLASSIFICATION_TYPE = U
NORAD_CAT_ID   = 21422
ELEMENT_SET_NO = 999
REV_AT_EPOCH   = 84432
BSTAR          = .19205E-3
MEAN_MOTION_DOT = .2386E-4
MEAN_MOTION_DDOT = 0

CCSDS_OMM_VERS = 2.0
CREATION_DATE  = 
ORIGINATOR     = 

OBJECT_NAME    = SL-14 R/B
OBJECT_ID      = 1991-042B
CENTER_NAME    = EARTH
REF_FRAME      = TEME
TIME_SYSTEM    = UTC
MEAN_ELEMENT_THEORY = SGP/SGP4

EPOCH          = 2025-11-03T19:35:48.313824
MEAN_MOTION    = 14.81685320
ECCENTRICITY   = .001561
INCLINATION    = 82.4930
RA_OF_ASC_NODE = 338.2278
ARG_OF_PERICENTER = 297.2624
MEAN_ANOMALY   = 62.6999

EPHEMERIS_TYPE = 0
CLASSIFICATION_TYPE = U
NORAD_CAT_ID   = 21423
ELEMENT_SET_NO = 999
REV_AT_EPOCH   = 83443
BSTAR          = .56863E-4
MEAN_MOTION_DOT = .471E-5
MEAN_MOTION_DDOT = 0

CCSDS_OMM_VERS = 2.0
CREATION_DATE  = 
ORIGINATOR     = 

OBJECT_NAME    = ERS-1
OBJECT_ID      = 1991-050A
CENTER_NAME    = EARTH
REF_FRAME      = TEME
TIME_SYSTEM    = UTC
MEAN_ELEMENT_THEORY = SGP/SGP4

EPOCH          = 2025-11-03T17:43:13.878048
MEAN_MOTION    = 14.39318169
ECCENTRICITY   = .0031387
INCLINATION    = 98.7929
RA_OF_ASC_NODE = 317.8130
ARG_OF_PERICENTER = 214.3853
MEAN_ANOMALY   = 145.5303

EPHEMERIS_TYPE = 0
CLASSIFICATION_TYPE = U
NORAD_CAT_ID   = 21574
ELEMENT_SET_NO = 999
REV_AT_EPOCH   = 79761
BSTAR          = .13044E-3
MEAN_MOTION_DOT = .361E-5
MEAN_MOTION_DDOT = 0

CCSDS_OMM_VERS = 2.0
CREATION_DATE  = 
ORIGINATOR     = 

OBJECT_NAME    = ARIANE 40 R/B
OBJECT_ID      = 1991-050F
CENTER_NAME    = EARTH
REF_FRAME      = TEME
TIME_SYSTEM    = UTC
MEAN_ELEMENT_THEORY = SGP/SGP4

EPOCH          = 2025-11-02T10:11:05.618112
MEAN_MOTION    = 14.42760275
ECCENTRICITY   = .0004403
INCLINATION    = 98.2226
RA_OF_ASC_NODE = 358.2988
ARG_OF_PERICENTER = 99.0621
MEAN_ANOMALY   = 261.1068

EPHEMERIS_TYPE = 0
CLASSIFICATION_TYPE = U
NORAD_CAT_ID   = 21610
ELEMENT_SET_NO = 999
REV_AT_EPOCH   = 80064
BSTAR          = .14371E-3
MEAN_MOTION_DOT = .437E-5
MEAN_MOTION_DDOT = 0

CCSDS_OMM_VERS = 2.0
CREATION_DATE  = 
ORIGINATOR     = 

OBJECT_NAME    = INTERCOSMOS 25
OBJECT_ID      = 1991-086A
CENTER_NAME    = EARTH
REF_FRAME      = TEME
TIME_SYSTEM    = UTC
MEAN_ELEMENT_THEORY = SGP/SGP4

EPOCH          = 2025-11-03T15:58:02.129088
MEAN_MOTION    = 12.11560356
ECCENTRICITY   = .1488794
INCLINATION    = 82.6095
RA_OF_ASC_NODE = 26.1897
ARG_OF_PERICENTER = 28.6052
MEAN_ANOMALY   = 338.9056

EPHEMERIS_TYPE = 0
CLASSIFICATION_TYPE = U
NORAD_CAT_ID   = 21819
ELEMENT_SET_NO = 999
REV_AT_EPOCH   = 48142
BSTAR          = .2851E-3
MEAN_MOTION_DOT = .1475E-4
MEAN_MOTION_DDOT = 0

CCSDS_OMM_VERS = 2.0
CREATION_DATE  = 
ORIGINATOR     = 

OBJECT_NAME    = SL-8 R/B
OBJECT_ID      = 1992-008B
CENTER_NAME    = EARTH
REF_FRAME      = TEME
TIME_SYSTEM    = UTC
MEAN_ELEMENT_THEORY = SGP/SGP4

EPOCH          = 2025-11-02T10:56:57.815808
MEAN_MOTION    = 13.75946797
ECCENTRICITY   = .0035875
INCLINATION    = 82.9298
RA_OF_ASC_NODE = 2.4078
ARG_OF_PERICENTER = 128.8320
MEAN_ANOMALY   = 242.2907

EPHEMERIS_TYPE = 0
CLASSIFICATION_TYPE = U
NORAD_CAT_ID   = 21876
ELEMENT_SET_NO = 999
REV_AT_EPOCH   = 69192
BSTAR          = .90236E-4
MEAN_MOTION_DOT = .103E-5
MEAN_MOTION_DDOT = 0

CCSDS_OMM_VERS = 2.0
CREATION_DATE  = 
ORIGINATOR     = 

OBJECT_NAME    = SL-8 R/B
OBJECT_ID      = 1992-020B
CENTER_NAME    = EARTH
REF_FRAME      = TEME
TIME_SYSTEM    = UTC
MEAN_ELEMENT_THEORY = SGP/SGP4

EPOCH          = 2025-11-03T14:00:43.045056
MEAN_MOTION    = 13.75520033
ECCENTRICITY   = .0027722
INCLINATION    = 82.9299
RA_OF_ASC_NODE = 247.3921
ARG_OF_PERICENTER = 291.3522
MEAN_ANOMALY   = 242.4645

EPHEMERIS_TYPE = 0
CLASSIFICATION_TYPE = U
NORAD_CAT_ID   = 21938
ELEMENT_SET_NO = 999
REV_AT_EPOCH   = 68379
BSTAR          = .31844E-4
MEAN_MOTION_DOT = .46E-6
MEAN_MOTION_DDOT = 0

CCSDS_OMM_VERS = 2.0
CREATION_DATE  = 
ORIGINATOR     = 

OBJECT_NAME    = USA 81
OBJECT_ID      = 1992-023A
CENTER_NAME    = EARTH
REF_FRAME      = TEME
TIME_SYSTEM    = UTC
MEAN_ELEMENT_THEORY = SGP/SGP4

EPOCH          = 2025-11-02T05:39:20.248992
MEAN_MOTION    = 14.32304313
ECCENTRICITY   = .00027677
INCLINATION    = 85.0115
RA_OF_ASC_NODE = 204.9283
ARG_OF_PERICENTER = 85.5828
MEAN_ANOMALY   = 274.5681

EPHEMERIS_TYPE = 0
CLASSIFICATION_TYPE = U
NORAD_CAT_ID   = 21949
ELEMENT_SET_NO = 999
REV_AT_EPOCH   = 7654
BSTAR          = .80436459E-4
MEAN_MOTION_DOT = .237E-5
MEAN_MOTION_DDOT = 0

CCSDS_OMM_VERS = 2.0
CREATION_DATE  = 
ORIGINATOR     = 

OBJECT_NAME    = COSMOS 2219
OBJECT_ID      = 1992-076A
CENTER_NAME    = EARTH
REF_FRAME      = TEME
TIME_SYSTEM    = UTC
MEAN_ELEMENT_THEORY = SGP/SGP4

EPOCH          = 2025-11-03T16:14:13.785216
MEAN_MOTION    = 14.14060160
ECCENTRICITY   = .0017086
INCLINATION    = 71.0597
RA_OF_ASC_NODE = 281.4871
ARG_OF_PERICENTER = 26.4047
MEAN_ANOMALY   = 333.7943

EPHEMERIS_TYPE = 0
CLASSIFICATION_TYPE = U
NORAD_CAT_ID   = 22219
ELEMENT_SET_NO = 999
REV_AT_EPOCH   = 70056
BSTAR          = .2114E-3
MEAN_MOTION_DOT = .356E-5
MEAN_MOTION_DDOT = 0

CCSDS_OMM_VERS = 2.0
CREATION_DATE  = 
ORIGINATOR     = 

OBJECT_NAME    = SL-16 R/B
OBJECT_ID      = 1992-076B
CENTER_NAME    = EARTH
REF_FRAME      = TEME
TIME_SYSTEM    = UTC
MEAN_ELEMENT_THEORY = SGP/SGP4

EPOCH          = 2025-11-03T20:04:05.037888
MEAN_MOTION    = 14.16831302
ECCENTRICITY   = .0014991
INCLINATION    = 70.9983
RA_OF_ASC_NODE = 93.4776
ARG_OF_PERICENTER = 284.5405
MEAN_ANOMALY   = 238.7737

EPHEMERIS_TYPE = 0
CLASSIFICATION_TYPE = U
NORAD_CAT_ID   = 22220
ELEMENT_SET_NO = 999
REV_AT_EPOCH   = 70400
BSTAR          = .16922E-3
MEAN_MOTION_DOT = .291E-5
MEAN_MOTION_DDOT = 0

CCSDS_OMM_VERS = 2.0
CREATION_DATE  = 
ORIGINATOR     = 

OBJECT_NAME    = COSMOS 2221
OBJECT_ID      = 1992-080A
CENTER_NAME    = EARTH
REF_FRAME      = TEME
TIME_SYSTEM    = UTC
MEAN_ELEMENT_THEORY = SGP/SGP4

EPOCH          = 2025-11-03T17:55:27.489216
MEAN_MOTION    = 14.95524450
ECCENTRICITY   = .0013226
INCLINATION    = 82.5069
RA_OF_ASC_NODE = 39.6329
ARG_OF_PERICENTER = 253.7665
MEAN_ANOMALY   = 106.2101

EPHEMERIS_TYPE = 0
CLASSIFICATION_TYPE = U
NORAD_CAT_ID   = 22236
ELEMENT_SET_NO = 999
REV_AT_EPOCH   = 76196
BSTAR          = .23957E-3
MEAN_MOTION_DOT = .2683E-4
MEAN_MOTION_DDOT = 0

